[{"OBJECT_NAME":"SL-8 R/B","OBJECT_ID":"1988-053B","EPOCH":"2026-03-08T02:54:11.292192","MEAN_MOTION":14.38914924,"ECCENTRICITY":0.0021389,"INCLINATION":74.0462,"RA_OF_ASC_NODE":115.3581,"ARG_OF_PERICENTER":294.7922,"MEAN_ANOMALY":95.3187,"EPHEMERIS_TYPE":0,"CLASSIFICATION_TYPE":"U","NORAD_CAT_ID":19257,"ELEMENT_SET_NO":999,"REV_AT_EPOCH":97637,"BSTAR":0.00012243,"MEAN_MOTION_DOT":3.52e-6,"MEAN_MOTION_DDOT":0},{"OBJECT_NAME":"COSMOS 1975","OBJECT_ID":"1988-093A","EPOCH":"2026-03-08T03:40:35.194368","MEAN_MOTION":15.28045362,"ECCENTRICITY":0.0012015,"INCLINATION":82.5181,"RA_OF_ASC_NODE":119.2276,"ARG_OF_PERICENTER":168.5425,"MEAN_ANOMALY":191.609,"EPHEMERIS_TYPE":0,"CLASSIFICATION_TYPE":"U","NORAD_CAT_ID":19573,"ELEMENT_SET_NO":999,"REV_AT_EPOCH":1917,"BSTAR":0.00039531,"MEAN_MOTION_DOT":0.00010868,"MEAN_MOTION_DDOT":0},{"OBJECT_NAME":"SL-14 R/B","OBJECT_ID":"1988-093B","EPOCH":"2026-03-08T04:06:23.493600","MEAN_MOTION":14.85654687,"ECCENTRICITY":0.0021865,"INCLINATION":82.5303,"RA_OF_ASC_NODE":43.4692,"ARG_OF_PERICENTER":46.2842,"MEAN_ANOMALY":324.5896,"EPHEMERIS_TYPE":0,"CLASSIFICATION_TYPE":"U","NORAD_CAT_ID":19574,"ELEMENT_SET_NO":999,"REV_AT_EPOCH":79,"BSTAR":9.3862e-5,"MEAN_MOTION_DOT":8.41e-6,"MEAN_MOTION_DDOT":0},{"OBJECT_NAME":"SL-16 R/B","OBJECT_ID":"1988-102B","EPOCH":"2026-03-07T23:56:48.757056","MEAN_MOTION":14.16150967,"ECCENTRICITY":0.0013849,"INCLINATION":71,"RA_OF_ASC_NODE":155.0571,"ARG_OF_PERICENTER":4.2178,"MEAN_ANOMALY":355.906,"EPHEMERIS_TYPE":0,"CLASSIFICATION_TYPE":"U","NORAD_CAT_ID":19650,"ELEMENT_SET_NO":999,"REV_AT_EPOCH":92665,"BSTAR":0.0001617,"MEAN_MOTION_DOT":2.72e-6,"MEAN_MOTION_DDOT":0},{"OBJECT_NAME":"INTERCOSMOS 24","OBJECT_ID":"1989-080A","EPOCH":"2026-03-08T03:13:43.271040","MEAN_MOTION":12.59555505,"ECCENTRICITY":0.1186719,"INCLINATION":82.6028,"RA_OF_ASC_NODE":105.4171,"ARG_OF_PERICENTER":296.4335,"MEAN_ANOMALY":51.9783,"EPHEMERIS_TYPE":0,"CLASSIFICATION_TYPE":"U","NORAD_CAT_ID":20261,"ELEMENT_SET_NO":999,"REV_AT_EPOCH":66660,"BSTAR":0.000292,"MEAN_MOTION_DOT":9.8e-6,"MEAN_MOTION_DDOT":0},{"OBJECT_NAME":"SL-14 R/B","OBJECT_ID":"1989-080C","EPOCH":"2026-03-08T00:51:02.821248","MEAN_MOTION":12.50491552,"ECCENTRICITY":0.1230514,"INCLINATION":82.5974,"RA_OF_ASC_NODE":174.2478,"ARG_OF_PERICENTER":188.5301,"MEAN_ANOMALY":169.3021,"EPHEMERIS_TYPE":0,"CLASSIFICATION_TYPE":"U","NORAD_CAT_ID":20262,"ELEMENT_SET_NO":999,"REV_AT_EPOCH":65994,"BSTAR":0.00025677,"MEAN_MOTION_DOT":8.65e-6,"MEAN_MOTION_DDOT":0},{"OBJECT_NAME":"DELTA 1 R/B","OBJECT_ID":"1989-089B","EPOCH":"2026-03-08T02:28:50.502720","MEAN_MOTION":14.50661707,"ECCENTRICITY":0.0070377,"INCLINATION":97.0706,"RA_OF_ASC_NODE":274.7943,"ARG_OF_PERICENTER":126.9278,"MEAN_ANOMALY":233.8395,"EPHEMERIS_TYPE":0,"CLASSIFICATION_TYPE":"U","NORAD_CAT_ID":20323,"ELEMENT_SET_NO":999,"REV_AT_EPOCH":89550,"BSTAR":0.00012478,"MEAN_MOTION_DOT":4.71e-6,"MEAN_MOTION_DDOT":0},{"OBJECT_NAME":"ARIANE 40 R/B","OBJECT_ID":"1990-005H","EPOCH":"2026-03-08T03:29:52.263456","MEAN_MOTION":14.39869512,"ECCENTRICITY":0.000975,"INCLINATION":98.3086,"RA_OF_ASC_NODE":127.8532,"ARG_OF_PERICENTER":203.195,"MEAN_ANOMALY":156.88,"EPHEMERIS_TYPE":0,"CLASSIFICATION_TYPE":"U","NORAD_CAT_ID":20443,"ELEMENT_SET_NO":999,"REV_AT_EPOCH":89258,"BSTAR":0.00013608,"MEAN_MOTION_DOT":3.85e-6,"MEAN_MOTION_DDOT":0},{"OBJECT_NAME":"DELTA 2 R/B(1)","OBJECT_ID":"1990-008B","EPOCH":"2026-03-08T00:39:02.437056","MEAN_MOTION":15.5574535,"ECCENTRICITY":0.0085724,"INCLINATION":35.604,"RA_OF_ASC_NODE":185.7642,"ARG_OF_PERICENTER":243.3717,"MEAN_ANOMALY":115.8217,"EPHEMERIS_TYPE":0,"CLASSIFICATION_TYPE":"U","NORAD_CAT_ID":20453,"ELEMENT_SET_NO":999,"REV_AT_EPOCH":92587,"BSTAR":0.00098454,"MEAN_MOTION_DOT":0.00083705,"MEAN_MOTION_DDOT":0},{"OBJECT_NAME":"COSMOS 2058","OBJECT_ID":"1990-010A","EPOCH":"2026-03-08T04:35:48.871968","MEAN_MOTION":15.11306455,"ECCENTRICITY":0.0009504,"INCLINATION":82.467,"RA_OF_ASC_NODE":48.9039,"ARG_OF_PERICENTER":348.9049,"MEAN_ANOMALY":11.197,"EPHEMERIS_TYPE":0,"CLASSIFICATION_TYPE":"U","NORAD_CAT_ID":20465,"ELEMENT_SET_NO":999,"REV_AT_EPOCH":94201,"BSTAR":0.00037862,"MEAN_MOTION_DOT":6.41e-5,"MEAN_MOTION_DDOT":0},{"OBJECT_NAME":"SL-14 R/B","OBJECT_ID":"1990-010B","EPOCH":"2026-03-08T01:38:10.694976","MEAN_MOTION":14.83567473,"ECCENTRICITY":0.0018644,"INCLINATION":82.4988,"RA_OF_ASC_NODE":268.9124,"ARG_OF_PERICENTER":308.0415,"MEAN_ANOMALY":51.9117,"EPHEMERIS_TYPE":0,"CLASSIFICATION_TYPE":"U","NORAD_CAT_ID":20466,"ELEMENT_SET_NO":999,"REV_AT_EPOCH":92824,"BSTAR":6.5588e-5,"MEAN_MOTION_DOT":5.65e-6,"MEAN_MOTION_DDOT":0},{"OBJECT_NAME":"SL-14 R/B","OBJECT_ID":"1990-018B","EPOCH":"2026-03-08T03:38:50.817984","MEAN_MOTION":14.82143367,"ECCENTRICITY":0.0017662,"INCLINATION":82.52,"RA_OF_ASC_NODE":224.527,"ARG_OF_PERICENTER":96.6874,"MEAN_ANOMALY":263.6351,"EPHEMERIS_TYPE":0,"CLASSIFICATION_TYPE":"U","NORAD_CAT_ID":20511,"ELEMENT_SET_NO":999,"REV_AT_EPOCH":92235,"BSTAR":9.3432e-5,"MEAN_MOTION_DOT":7.69e-6,"MEAN_MOTION_DDOT":0},{"OBJECT_NAME":"HST","OBJECT_ID":"1990-037B","EPOCH":"2026-03-08T01:12:43.886880","MEAN_MOTION":15.29454135,"ECCENTRICITY":0.0001798,"INCLINATION":28.4714,"RA_OF_ASC_NODE":51.18,"ARG_OF_PERICENTER":110.1029,"MEAN_ANOMALY":249.976,"EPHEMERIS_TYPE":0,"CLASSIFICATION_TYPE":"U","NORAD_CAT_ID":20580,"ELEMENT_SET_NO":999,"REV_AT_EPOCH":77306,"BSTAR":0.00036739,"MEAN_MOTION_DOT":0.00011037,"MEAN_MOTION_DDOT":0},{"OBJECT_NAME":"SL-16 R/B","OBJECT_ID":"1990-046B","EPOCH":"2026-03-08T01:42:38.431296","MEAN_MOTION":14.15013037,"ECCENTRICITY":0.0016227,"INCLINATION":70.999,"RA_OF_ASC_NODE":301.3139,"ARG_OF_PERICENTER":301.8291,"MEAN_ANOMALY":58.1251,"EPHEMERIS_TYPE":0,"CLASSIFICATION_TYPE":"U","NORAD_CAT_ID":20625,"ELEMENT_SET_NO":999,"REV_AT_EPOCH":84816,"BSTAR":-9.8895e-5,"MEAN_MOTION_DOT":-2.4e-6,"MEAN_MOTION_DDOT":0},{"OBJECT_NAME":"COSMOS 2084","OBJECT_ID":"1990-055A","EPOCH":"2026-03-08T03:04:20.161632","MEAN_MOTION":15.05641088,"ECCENTRICITY":0.0017269,"INCLINATION":62.7923,"RA_OF_ASC_NODE":340.9045,"ARG_OF_PERICENTER":189.4667,"MEAN_ANOMALY":170.6111,"EPHEMERIS_TYPE":0,"CLASSIFICATION_TYPE":"U","NORAD_CAT_ID":20663,"ELEMENT_SET_NO":999,"REV_AT_EPOCH":93608,"BSTAR":0.00028641,"MEAN_MOTION_DOT":3.967e-5,"MEAN_MOTION_DDOT":0},{"OBJECT_NAME":"SL-6 R/B(2)","OBJECT_ID":"1990-055D","EPOCH":"2026-03-07T23:24:43.404768","MEAN_MOTION":15.03585528,"ECCENTRICITY":0.00243938,"INCLINATION":62.7823,"RA_OF_ASC_NODE":259.6802,"ARG_OF_PERICENTER":346.5975,"MEAN_ANOMALY":13.4473,"EPHEMERIS_TYPE":0,"CLASSIFICATION_TYPE":"U","NORAD_CAT_ID":20666,"ELEMENT_SET_NO":999,"REV_AT_EPOCH":93793,"BSTAR":0.000231485,"MEAN_MOTION_DOT":2.998e-5,"MEAN_MOTION_DDOT":0},{"OBJECT_NAME":"SL-8 R/B","OBJECT_ID":"1990-078B","EPOCH":"2026-03-08T00:43:19.687872","MEAN_MOTION":14.88993682,"ECCENTRICITY":0.0362632,"INCLINATION":82.9001,"RA_OF_ASC_NODE":252.8038,"ARG_OF_PERICENTER":19.5887,"MEAN_ANOMALY":341.8852,"EPHEMERIS_TYPE":0,"CLASSIFICATION_TYPE":"U","NORAD_CAT_ID":20775,"ELEMENT_SET_NO":999,"REV_AT_EPOCH":80905,"BSTAR":0.00062439,"MEAN_MOTION_DOT":0.00021205,"MEAN_MOTION_DDOT":0}]
