SL-8 R/B                
1 19257U 88053B   26067.12096403  .00000352  00000+0  12243-3 0  9998
2 19257  74.0462 115.3581 0021389 294.7922  95.3187 14.38914924976371
COSMOS 1975             
1 19573U 88093A   26067.15318512  .00010868  00000+0  39531-3 0  9996
2 19573  82.5181 119.2276 0012015 168.5425 191.6090 15.28045362 19170
SL-14 R/B               
1 19574U 88093B   26067.17110525  .00000841  00000+0  93862-4 0  9991
2 19574  82.5303  43.4692 0021865  46.2842 324.5896 14.85654687   792
SL-16 R/B               
1 19650U 88102B   26066.99778654  .00000272  00000+0  16170-3 0  9993
2 19650  71.0000 155.0571 0013849   4.2178 355.9060 14.16150967926658
INTERCOSMOS 24          
1 20261U 89080A   26067.13452860  .00000980  00000+0  29200-3 0  9998
2 20261  82.6028 105.4171 1186719 296.4335  51.9783 12.59555505666602
SL-14 R/B               
1 20262U 89080C   26067.03544932  .00000865  00000+0  25677-3 0  9996
2 20262  82.5974 174.2478 1230514 188.5301 169.3021 12.50491552659943
DELTA 1 R/B             
1 20323U 89089B   26067.10336230  .00000471  00000+0  12478-3 0  9999
2 20323  97.0706 274.7943 0070377 126.9278 233.8395 14.50661707895503
ARIANE 40 R/B           
1 20443U 90005H   26067.14574379  .00000385  00000+0  13608-3 0  9994
2 20443  98.3086 127.8532 0009750 203.1950 156.8800 14.39869512892586
DELTA 2 R/B(1)          
1 20453U 90008B   26067.02711154  .00083705  00000+0  98454-3 0  9998
2 20453  35.6040 185.7642 0085724 243.3717 115.8217 15.55745350925876
COSMOS 2058             
1 20465U 90010A   26067.19153787  .00006410  00000+0  37862-3 0  9998
2 20465  82.4670  48.9039 0009504 348.9049  11.1970 15.11306455942010
SL-14 R/B               
1 20466U 90010B   26067.06817934  .00000565  00000+0  65588-4 0  9998
2 20466  82.4988 268.9124 0018644 308.0415  51.9117 14.83567473928242
SL-14 R/B               
1 20511U 90018B   26067.15197706  .00000769  00000+0  93432-4 0  9990
2 20511  82.5200 224.5270 0017662  96.6874 263.6351 14.82143367922358
HST                     
1 20580U 90037B   26067.05050795  .00011037  00000+0  36739-3 0  9998
2 20580  28.4714  51.1800 0001798 110.1029 249.9760 15.29454135773066
SL-16 R/B               
1 20625U 90046B   26067.07127814 -.00000240  00000+0 -98895-4 0  9995
2 20625  70.9990 301.3139 0016227 301.8291  58.1251 14.15013037848167
COSMOS 2084             
1 20663U 90055A   26067.12801113  .00003967  00000+0  28641-3 0  9992
2 20663  62.7923 340.9045 0017269 189.4667 170.6111 15.05641088936080
SL-6 R/B(2)             
1 20666U 90055D   26066.97550237  .00002998  00000+0  23148-3 0  9995
2 20666  62.7823 259.6802 0024393 346.5975  13.4473 15.03585528937937
SL-8 R/B                
1 20775U 90078B   26067.03008898  .00021205  00000+0  62439-3 0  9998
2 20775  82.9001 252.8038 0362632  19.5887 341.8852 14.88993682809052
